TDRS 3                  
1 19548U 88091B   26166.39192816 -.00000302  00000+0  00000+0 0  9997
2 19548  12.6033 341.0150 0038418 356.0119  18.9162  1.00273650125376
FLTSATCOM 8 (USA 46)    
1 20253U 89077A   26166.42645125 -.00000371  00000+0  00000+0 0  9993
2 20253  12.4222 351.1757 0004473  54.4521 137.2600  1.00278398260549
SKYNET 4C               
1 20776U 90079A   26162.20198485  .00000132  00000+0  00000+0 0  9995
2 20776  13.3423 349.8525 0002401  96.2300 279.5546  1.00274124130837
TDRS 5                  
1 21639U 91054B   26166.49499519  .00000078  00000+0  00000+0 0  9994
2 21639  14.0714 353.7924 0006431 274.9973   5.4940  1.00273439127694
TDRS 6                  
1 22314U 93003B   26166.39253484 -.00000301  00000+0  00000+0 0  9999
2 22314  14.1828 357.0733 0007880 177.9710 184.1432  1.00272041122398
UFO 2 (USA 95)          
1 22787U 93056A   26166.19346161  .00000121  00000+0  00000+0 0  9993
2 22787  11.8942   3.5672 0005906   8.0693 350.1507  1.00275775118524
USA 99 (MILSTAR-1 1)    
1 22988U 94009A   26166.33320448 -.00000145  00000+0  00000+0 0  9998
2 22988  17.6242  27.7258 0001104 218.8814 152.3009  0.98722730 32937
UFO 4 (USA 108)         
1 23467U 95003A   26166.44674333 -.00000027  00000+0  00000+0 0  9992
2 23467   9.7000  13.2373 0003116  65.5291 157.9618  1.00272287114932
TDRS 7                  
1 23613U 95035B   26166.49049093 -.00000241  00000+0  00000+0 0  9992
2 23613  13.3778 348.2029 0011060  78.2503 102.7830  1.00264910113231
USA 115 (MILSTAR-1 2)   
1 23712U 95060A   26166.27170722 -.00000193  00000+0  00000+0 0  9996
2 23712  14.0722   3.7638 0001513 142.7906 119.9632  1.00364536 32867
INMARSAT 3-F1           
1 23839U 96020A   26166.22753314 -.00000136  00000+0  00000+0 0  9999
2 23839  10.5971  46.6536 0003759  48.3878 157.2869  0.99978871110235
INMARSAT 3-F2           
1 24307U 96053A   26166.51989272 -.00000252  00000+0  00000+0 0  9991
2 24307   9.8534  53.9546 0006732  28.4751 159.5240  1.00003465108907
INMARSAT 3-F3           
1 24674U 96070A   26165.76895216  .00000131  00000+0  00000+0 0  9992
2 24674  10.3132  49.6776 0003409  23.1760 152.0731  0.99981262107888
AMC-3                   
1 24936U 97050A   26166.43978191  .00000066  00000+0  00000+0 0  9998
2 24936   8.1603  64.0046 0004041  26.2769 209.0229  0.99061227 52417
USA 134                 
1 25019U 97065A   26166.42955255 -.00000069  00000+0  00000+0 0  9996
2 25019  12.7822  21.7367 0003348 335.7517 308.5992  1.00268997 32931
INMARSAT 3-F5           
1 25153U 98006B   26166.42595001 -.00000296  00000+0  00000+0 0  9992
2 25153   9.6896  53.2773 0004408  27.4510 282.3188  1.00268232103873
ABS-6                   
1 25924U 99053A   26166.51433785 -.00000115  00000+0  00000+0 0  9991
2 25924   0.0264 286.3920 0003844 166.4182 155.1681  1.00277756 97821
UFO 10 (USA 146)        
1 25967U 99063A   26166.39704153 -.00000192  00000+0  00000+0 0  9990
2 25967   9.8473  27.2212 0001859  39.3320 317.1372  1.00271572 97321
ASIASTAR                
1 26107U 00016A   26165.78060189 -.00000335  00000+0  00000+0 0  9992
2 26107   9.1240  58.1796 0004406  26.0908 204.8356  1.00269826 95892
USA 149 (DSP 20)        
1 26356U 00024A   26166.26641926  .00000089  00000+0  00000+0 0  9990
2 26356  13.1692  11.8670 0001914 306.5712 235.6264  1.00273803 32892
TDRS 8                  
1 26388U 00034A   26165.76603400 -.00000197  00000+0  00000+0 0  9996
2 26388  12.6799  31.3437 0004670  17.4245 214.7083  1.00267633 95157
NSS-11                  
1 26554U 00059A   26166.50322515  .00000026  00000+0  00000+0 0  9996
2 26554   2.1225  81.4090 0002782 349.8373 189.6962  1.00270774 41277
USA 153                 
1 26575U 00065A   26166.49956815 -.00000331  00000+0  00000+0 0  9990
2 26575  11.6218  35.4365 0003006  46.3132 136.3767  1.00269815 32910
AMC-6                   
1 26580U 00067A   26166.44619825  .00000091  00000+0  00000+0 0  9992
2 26580   0.1483  83.0869 0003453  13.0751 193.1678  1.00272766 93878
USA 157 (MILSTAR-2 2)   
1 26715U 01009A   26166.28001343  .00000104  00000+0  00000+0 0  9996
2 26715  11.5407  19.7773 0039328 177.6481  16.8759  1.00273744 32924
INTELSAT 902 (IS-902)   
1 26900U 01039A   26166.17755505 -.00000284  00000+0  00000+0 0  9999
2 26900   6.1123  71.8090 0004488   8.9275 196.5439  1.00270716 90675
USA 164 (MILSTAR-2 3)   
1 27168U 02001A   26166.26274124  .00000094  00000+0  00000+0 0  9997
2 27168  11.1773  21.9202 0098969   8.3272 346.9157  1.00276736 32939
INTELSAT 904 (IS-904)   
1 27380U 02007A   26166.03889626 -.00000226  00000+0  00000+0 0  9991
2 27380   6.9148  69.2101 0006460   4.6857 171.9453  1.00270923 51746
DIRECTV 5 (TEMPO 1)     
1 27426U 02023A   26166.39599329 -.00000058  00000+0  00000+0 0  9990
2 27426   4.8734  75.3324 0003243  23.0379 197.7642  1.00271501 88109
INTELSAT 905 (IS-905)   
1 27438U 02027A   26166.47961602  .00000091  00000+0  00000+0 0  9999
2 27438   6.7495  69.8206 0003730  20.3591 209.0280  1.00270757 51344
GALAXY 3C (G-3C)        
1 27445U 02030A   26166.40079963 -.00000152  00000+0  00000+0 0  9993
2 27445   3.7272  77.9998 0001539  34.0137 201.1100  1.00271070 46474
